SL-3 R/B                
1 13154U 82039B   25312.83011149  .00004003  00000+0  24711-3 0  9990
2 13154  81.1803 355.0859 0032448   3.0951 357.0468 15.09245017363404
SL-3 R/B                
1 13403U 82079B   25312.78651470  .00007455  00000+0  31277-3 0  9991
2 13403  81.1468 335.6727 0025041 211.9180 148.0537 15.23054136359283
SL-14 R/B               
1 13553U 82092B   25312.81511965  .00001032  00000+0  11364-3 0  9990
2 13553  82.5674 254.4362 0020066 346.9724  35.6176 14.86495758310971
SL-3 R/B                
1 13819U 83010B   25312.52779698  .00016280  00000+0  37610-3 0  9996
2 13819  81.1024 150.3397 0018393 107.1724 253.1534 15.42207474339244
SL-3 R/B                
1 14208U 83075B   25312.77322435  .00016027  00000+0  46848-3 0  9992
2 14208  97.6104 308.1413 0021527 305.0647  54.8576 15.35140734311582
COSMOS 1536             
1 14699U 84013A   25312.75584949  .00011924  00000+0  52038-3 0  9996
2 14699  82.5472 227.8470 0015176 355.9227   4.1882 15.21918122254211
SL-14 R/B               
1 14820U 84027B   25312.54718619  .00000759  00000+0  84253-4 0  9996
2 14820  82.5433 358.6216 0018457  19.5577 340.6343 14.85821337229640
SL-8 R/B                
1 15483U 85006B   25312.78505492  .00000353  00000+0  12591-3 0  9994
2 15483  74.0430 123.6038 0017532  67.0148 304.2148 14.37688923136652
SL-12 R/B(2)            
1 15772U 85042D   25312.50406117  .00000204  00000+0  11320-3 0  9993
2 15772  71.1089 343.7488 0037086 311.7040 198.6836 14.21935126 97165
SL-14 R/B               
1 15945U 85069B   25312.77055919  .00000797  00000+0  87681-4 0  9994
2 15945  82.5247 138.6395 0017620 230.1542 129.8125 14.86262817154870
SL-16 R/B               
1 16182U 85097B   25312.69280498 -.00000167  00000+0 -59658-4 0  9998
2 16182  71.0047  35.2801 0005116  75.9355  85.5690 14.16576179 70091
SL-14 R/B               
1 16496U 86006B   25312.57492862  .00001030  00000+0  10765-3 0  9997
2 16496  82.5295  13.6946 0075694 315.0134  44.4965 14.86600248131215
