CCSDS_OMM_VERS = 2.0
CREATION_DATE  = 
ORIGINATOR     = 

OBJECT_NAME    = SL-3 R/B
OBJECT_ID      = 1982-039B
CENTER_NAME    = EARTH
REF_FRAME      = TEME
TIME_SYSTEM    = UTC
MEAN_ELEMENT_THEORY = SGP/SGP4

EPOCH          = 2025-11-08T19:55:21.632736
MEAN_MOTION    = 15.09245017
ECCENTRICITY   = .0032448
INCLINATION    = 81.1803
RA_OF_ASC_NODE = 355.0859
ARG_OF_PERICENTER = 3.0951
MEAN_ANOMALY   = 357.0468

EPHEMERIS_TYPE = 0
CLASSIFICATION_TYPE = U
NORAD_CAT_ID   = 13154
ELEMENT_SET_NO = 999
REV_AT_EPOCH   = 36340
BSTAR          = .24711E-3
MEAN_MOTION_DOT = .4003E-4
MEAN_MOTION_DDOT = 0

CCSDS_OMM_VERS = 2.0
CREATION_DATE  = 
ORIGINATOR     = 

OBJECT_NAME    = SL-3 R/B
OBJECT_ID      = 1982-079B
CENTER_NAME    = EARTH
REF_FRAME      = TEME
TIME_SYSTEM    = UTC
MEAN_ELEMENT_THEORY = SGP/SGP4

EPOCH          = 2025-11-08T18:52:34.870080
MEAN_MOTION    = 15.23054136
ECCENTRICITY   = .0025041
INCLINATION    = 81.1468
RA_OF_ASC_NODE = 335.6727
ARG_OF_PERICENTER = 211.9180
MEAN_ANOMALY   = 148.0537

EPHEMERIS_TYPE = 0
CLASSIFICATION_TYPE = U
NORAD_CAT_ID   = 13403
ELEMENT_SET_NO = 999
REV_AT_EPOCH   = 35928
BSTAR          = .31277E-3
MEAN_MOTION_DOT = .7455E-4
MEAN_MOTION_DDOT = 0

CCSDS_OMM_VERS = 2.0
CREATION_DATE  = 
ORIGINATOR     = 

OBJECT_NAME    = SL-14 R/B
OBJECT_ID      = 1982-092B
CENTER_NAME    = EARTH
REF_FRAME      = TEME
TIME_SYSTEM    = UTC
MEAN_ELEMENT_THEORY = SGP/SGP4

EPOCH          = 2025-11-08T19:33:46.337760
MEAN_MOTION    = 14.86495758
ECCENTRICITY   = .0020066
INCLINATION    = 82.5674
RA_OF_ASC_NODE = 254.4362
ARG_OF_PERICENTER = 346.9724
MEAN_ANOMALY   = 35.6176

EPHEMERIS_TYPE = 0
CLASSIFICATION_TYPE = U
NORAD_CAT_ID   = 13553
ELEMENT_SET_NO = 999
REV_AT_EPOCH   = 31097
BSTAR          = .11364E-3
MEAN_MOTION_DOT = .1032E-4
MEAN_MOTION_DDOT = 0

CCSDS_OMM_VERS = 2.0
CREATION_DATE  = 
ORIGINATOR     = 

OBJECT_NAME    = SL-3 R/B
OBJECT_ID      = 1983-010B
CENTER_NAME    = EARTH
REF_FRAME      = TEME
TIME_SYSTEM    = UTC
MEAN_ELEMENT_THEORY = SGP/SGP4

EPOCH          = 2025-11-08T12:40:01.659072
MEAN_MOTION    = 15.42207474
ECCENTRICITY   = .0018393
INCLINATION    = 81.1024
RA_OF_ASC_NODE = 150.3397
ARG_OF_PERICENTER = 107.1724
MEAN_ANOMALY   = 253.1534

EPHEMERIS_TYPE = 0
CLASSIFICATION_TYPE = U
NORAD_CAT_ID   = 13819
ELEMENT_SET_NO = 999
REV_AT_EPOCH   = 33924
BSTAR          = .3761E-3
MEAN_MOTION_DOT = .1628E-3
MEAN_MOTION_DDOT = 0

CCSDS_OMM_VERS = 2.0
CREATION_DATE  = 
ORIGINATOR     = 

OBJECT_NAME    = SL-3 R/B
OBJECT_ID      = 1983-075B
CENTER_NAME    = EARTH
REF_FRAME      = TEME
TIME_SYSTEM    = UTC
MEAN_ELEMENT_THEORY = SGP/SGP4

EPOCH          = 2025-11-08T18:33:26.583840
MEAN_MOTION    = 15.35140734
ECCENTRICITY   = .0021527
INCLINATION    = 97.6104
RA_OF_ASC_NODE = 308.1413
ARG_OF_PERICENTER = 305.0647
MEAN_ANOMALY   = 54.8576

EPHEMERIS_TYPE = 0
CLASSIFICATION_TYPE = U
NORAD_CAT_ID   = 14208
ELEMENT_SET_NO = 999
REV_AT_EPOCH   = 31158
BSTAR          = .46848E-3
MEAN_MOTION_DOT = .16027E-3
MEAN_MOTION_DDOT = 0

CCSDS_OMM_VERS = 2.0
CREATION_DATE  = 
ORIGINATOR     = 

OBJECT_NAME    = COSMOS 1536
OBJECT_ID      = 1984-013A
CENTER_NAME    = EARTH
REF_FRAME      = TEME
TIME_SYSTEM    = UTC
MEAN_ELEMENT_THEORY = SGP/SGP4

EPOCH          = 2025-11-08T18:08:25.395936
MEAN_MOTION    = 15.21918122
ECCENTRICITY   = .0015176
INCLINATION    = 82.5472
RA_OF_ASC_NODE = 227.8470
ARG_OF_PERICENTER = 355.9227
MEAN_ANOMALY   = 4.1882

EPHEMERIS_TYPE = 0
CLASSIFICATION_TYPE = U
NORAD_CAT_ID   = 14699
ELEMENT_SET_NO = 999
REV_AT_EPOCH   = 25421
BSTAR          = .52038E-3
MEAN_MOTION_DOT = .11924E-3
MEAN_MOTION_DDOT = 0

CCSDS_OMM_VERS = 2.0
CREATION_DATE  = 
ORIGINATOR     = 

OBJECT_NAME    = SL-14 R/B
OBJECT_ID      = 1984-027B
CENTER_NAME    = EARTH
REF_FRAME      = TEME
TIME_SYSTEM    = UTC
MEAN_ELEMENT_THEORY = SGP/SGP4

EPOCH          = 2025-11-08T13:07:56.886816
MEAN_MOTION    = 14.85821337
ECCENTRICITY   = .0018457
INCLINATION    = 82.5433
RA_OF_ASC_NODE = 358.6216
ARG_OF_PERICENTER = 19.5577
MEAN_ANOMALY   = 340.6343

EPHEMERIS_TYPE = 0
CLASSIFICATION_TYPE = U
NORAD_CAT_ID   = 14820
ELEMENT_SET_NO = 999
REV_AT_EPOCH   = 22964
BSTAR          = .84253E-4
MEAN_MOTION_DOT = .759E-5
MEAN_MOTION_DDOT = 0

CCSDS_OMM_VERS = 2.0
CREATION_DATE  = 
ORIGINATOR     = 

OBJECT_NAME    = SL-8 R/B
OBJECT_ID      = 1985-006B
CENTER_NAME    = EARTH
REF_FRAME      = TEME
TIME_SYSTEM    = UTC
MEAN_ELEMENT_THEORY = SGP/SGP4

EPOCH          = 2025-11-08T18:50:28.745088
MEAN_MOTION    = 14.37688923
ECCENTRICITY   = .0017532
INCLINATION    = 74.0430
RA_OF_ASC_NODE = 123.6038
ARG_OF_PERICENTER = 67.0148
MEAN_ANOMALY   = 304.2148

EPHEMERIS_TYPE = 0
CLASSIFICATION_TYPE = U
NORAD_CAT_ID   = 15483
ELEMENT_SET_NO = 999
REV_AT_EPOCH   = 13665
BSTAR          = .12591E-3
MEAN_MOTION_DOT = .353E-5
MEAN_MOTION_DDOT = 0

CCSDS_OMM_VERS = 2.0
CREATION_DATE  = 
ORIGINATOR     = 

OBJECT_NAME    = SL-12 R/B(2)
OBJECT_ID      = 1985-042D
CENTER_NAME    = EARTH
REF_FRAME      = TEME
TIME_SYSTEM    = UTC
MEAN_ELEMENT_THEORY = SGP/SGP4

EPOCH          = 2025-11-08T12:05:50.885088
MEAN_MOTION    = 14.21935126
ECCENTRICITY   = .0037086
INCLINATION    = 71.1089
RA_OF_ASC_NODE = 343.7488
ARG_OF_PERICENTER = 311.7040
MEAN_ANOMALY   = 198.6836

EPHEMERIS_TYPE = 0
CLASSIFICATION_TYPE = U
NORAD_CAT_ID   = 15772
ELEMENT_SET_NO = 999
REV_AT_EPOCH   = 9716
BSTAR          = .1132E-3
MEAN_MOTION_DOT = .204E-5
MEAN_MOTION_DDOT = 0

CCSDS_OMM_VERS = 2.0
CREATION_DATE  = 
ORIGINATOR     = 

OBJECT_NAME    = SL-14 R/B
OBJECT_ID      = 1985-069B
CENTER_NAME    = EARTH
REF_FRAME      = TEME
TIME_SYSTEM    = UTC
MEAN_ELEMENT_THEORY = SGP/SGP4

EPOCH          = 2025-11-08T18:29:36.314016
MEAN_MOTION    = 14.86262817
ECCENTRICITY   = .001762
INCLINATION    = 82.5247
RA_OF_ASC_NODE = 138.6395
ARG_OF_PERICENTER = 230.1542
MEAN_ANOMALY   = 129.8125

EPHEMERIS_TYPE = 0
CLASSIFICATION_TYPE = U
NORAD_CAT_ID   = 15945
ELEMENT_SET_NO = 999
REV_AT_EPOCH   = 15487
BSTAR          = .87681E-4
MEAN_MOTION_DOT = .797E-5
MEAN_MOTION_DDOT = 0

CCSDS_OMM_VERS = 2.0
CREATION_DATE  = 
ORIGINATOR     = 

OBJECT_NAME    = SL-16 R/B
OBJECT_ID      = 1985-097B
CENTER_NAME    = EARTH
REF_FRAME      = TEME
TIME_SYSTEM    = UTC
MEAN_ELEMENT_THEORY = SGP/SGP4

EPOCH          = 2025-11-08T16:37:38.350272
MEAN_MOTION    = 14.16576179
ECCENTRICITY   = .0005116
INCLINATION    = 71.0047
RA_OF_ASC_NODE = 35.2801
ARG_OF_PERICENTER = 75.9355
MEAN_ANOMALY   = 85.5690

EPHEMERIS_TYPE = 0
CLASSIFICATION_TYPE = U
NORAD_CAT_ID   = 16182
ELEMENT_SET_NO = 999
REV_AT_EPOCH   = 7009
BSTAR          = -.59658E-4
MEAN_MOTION_DOT = -.167E-5
MEAN_MOTION_DDOT = 0

CCSDS_OMM_VERS = 2.0
CREATION_DATE  = 
ORIGINATOR     = 

OBJECT_NAME    = SL-14 R/B
OBJECT_ID      = 1986-006B
CENTER_NAME    = EARTH
REF_FRAME      = TEME
TIME_SYSTEM    = UTC
MEAN_ELEMENT_THEORY = SGP/SGP4

EPOCH          = 2025-11-08T13:47:53.832768
MEAN_MOTION    = 14.86600248
ECCENTRICITY   = .0075694
INCLINATION    = 82.5295
RA_OF_ASC_NODE = 13.6946
ARG_OF_PERICENTER = 315.0134
MEAN_ANOMALY   = 44.4965

EPHEMERIS_TYPE = 0
CLASSIFICATION_TYPE = U
NORAD_CAT_ID   = 16496
ELEMENT_SET_NO = 999
REV_AT_EPOCH   = 13121
BSTAR          = .10765E-3
MEAN_MOTION_DOT = .103E-4
MEAN_MOTION_DDOT = 0

